ONEWEB-0201             
1 48241U 21031AH  21216.91667824  .00000015  00000-0  00000+0 0  9996
2 48241  87.8507 283.1453 0008887 271.9705  71.7265 13.66361545 14827
ONEWEB-0207             
1 48242U 21031AJ  21216.91667824  .00000014  00000-0  00000+0 0  9996
2 48242  87.8122 283.0952 0006693 299.4184 174.1419 13.52032238 14764
ONEWEB-0208             
1 48243U 21031AK  21216.91667824  .00000014  00000-0  00000+0 0  9997
2 48243  87.8351 283.1001 0005003 290.9105 166.1900 13.56558772 14764
ONEWEB-0200             
1 48244U 21031AL  21216.91667824  .00000014  00000-0  00000+0 0  9998
2 48244  87.8633 283.0512 0009153 287.8050 185.5730 13.52571952 14709
ONEWEB-0217             
1 48245U 21031AM  21216.91667824  .00000014  00000-0  00000+0 0  9999
2 48245  87.8512 283.0504 0005996 313.5154 260.2261 13.44839548 14653
ONEWEB-0211             
1 48767U 21045A   21216.58334491  .00020749  00000-0  69510-2 0  9998
2 48767  87.6289 254.2880 0009100  44.5897   3.9375 14.37187722  3552
ONEWEB-0223             
1 48768U 21045B   21216.91667824 -.01406625  00000-0 -55891+0 0  9993
2 48768  87.6239 254.1631 0011636  23.3354 324.9773 14.32120170 11568
ONEWEB-0230             
1 48769U 21045C   21216.58334491 -.01069282  00000-0 -20940+0 0  9999
2 48769  87.7768 254.1685 0008135  35.1990 296.9284 14.66060658  3560
ONEWEB-0237             
1 48770U 21045D   21216.58334491 -.01429237  00000-0 -62848+0 0  9994
2 48770  87.5738 254.2658 0012656  38.1908 359.9124 14.26935727  3515
ONEWEB-0235             
1 48771U 21045E   21216.91667824 -.01370650  00000-0 -61157+0 0  9997
2 48771  87.6476 254.2875 0007742  49.8583 109.3403 14.26643606 11502
ONEWEB-0242             
1 48772U 21045F   21216.83334491 -.01460289  00000-0 -51326+0 0  9995
2 48772  87.6654 254.1789 0012197  43.5004 267.6554 14.38457036 11556
ONEWEB-0241             
1 48773U 21045G   21216.91667824 -.01409593  00000-0 -58004+0 0  9995
2 48773  87.6115 254.1421 0008610  34.2721  33.4712 14.30348038 11525
ONEWEB-0243             
1 48774U 21045H   21216.91667824 -.01427221  00000-0 -67596+0 0  9990
2 48774  87.5861 254.2179 0012459  40.5140   9.4096 14.23044187 11501
ONEWEB-0222             
1 48775U 21045J   21216.58334491 -.01386000  00000-0 -54997+0 0  9995
2 48775  87.6015 254.2475 0011836  36.8106 226.3408 14.32138744  3579
ONEWEB-0244             
1 48776U 21045K   21216.91667824  .00039734  00000-0  91020-2 0  9999
2 48776  87.6658 254.1523 0007630  44.8681 198.4852 14.55375265 11599
ONEWEB-0247             
1 48777U 21045L   21216.91667824 -.01428734  00000-0 -64494+0 0  9997
2 48777  87.5738 254.1366 0007935  37.0549 279.5281 14.25594266 11529
ONEWEB-0245             
1 48778U 21045M   21216.91667824 -.01408817  00000-0 -59103+0 0  9999
2 48778  87.5983 254.1726 0012396  35.8999 252.0817 14.29327772 11525
ONEWEB-0229             
1 48779U 21045N   21216.58334491 -.01432601  00000-0 -64127+0 0  9994
2 48779  87.5690 254.2648 0008594  49.6459 328.3373 14.26039922  3512
ONEWEB-0228             
1 48780U 21045P   21216.91667824 -.01413903  00000-0 -66984+0 0  9999
2 48780  87.5646 254.1889 0010888  26.0678 157.2274 14.23007494 11516
ONEWEB-0232             
1 48781U 21045Q   21216.58334491 -.01052124  00000-0 -16741+0 0  9994
2 48781  87.8053 254.0612 0011235  43.8635 182.9220 14.75033767  3563
ONEWEB-0231             
1 48782U 21045R   21216.91667824 -.01430274  00000-0 -63417+0 0  9999
2 48782  87.5820 254.1474 0010613  48.0249 155.0765 14.26519646 11539
ONEWEB-0234             
1 48783U 21045S   21216.91667824  .00037926  00000-0  11664-1 0  9993
2 48783  87.6350 254.1283 0009847  26.2706 273.2612 14.41296657 11546
ONEWEB-0238             
1 48784U 21045T   21216.91667824 -.01409591  00000-0 -59736+0 0  9998
2 48784  87.5961 254.1690 0011317  41.0996  96.1624 14.28814495 11543
ONEWEB-0240             
1 48785U 21045U   21216.91667824 -.01431346  00000-0 -53314+0 0  9998
2 48785  87.6397 254.2154 0008584  40.4178 306.5420 14.35486514 11559
ONEWEB-0246             
1 48786U 21045V   21216.58334491 -.01430662  00000-0 -72310+0 0  9990
2 48786  87.5287 254.2659 0009465  58.4402  47.0523 14.19626242  3508
ONEWEB-0210             
1 48787U 21045W   21216.91667824 -.01387434  00000-0 -66447+0 0  9999
2 48787  87.5601 254.1761 0011118  24.1567 108.0582 14.22958075 11511
ONEWEB-0214             
1 48788U 21045X   21216.91667824 -.01430837  00000-0 -74942+0 0  9995
2 48788  87.5485 254.1977 0008183  47.4615  91.3769 14.17729244 11475
ONEWEB-0221             
1 48789U 21045Y   21216.58334491 -.01433880  00000-0 -54517+0 0  9997
2 48789  87.6214 254.2570 0011325  19.6419 165.4455 14.34435101  3529
ONEWEB-0213             
1 48790U 21045Z   21216.83334491 -.01457170  00000-0 -60247+0 0  9992
2 48790  87.6112 254.1967 0012065  27.6596   8.1346 14.30197635 11540
ONEWEB-0212             
1 48791U 21045AA  21216.83334491 -.00022475  00000-0 -75668-2 0  9994
2 48791  87.6071 254.1925 0012780  26.3101 182.9926 14.37325162 11552
ONEWEB-0227             
1 48792U 21045AB  21216.58334491 -.01424377  00000-0 -63972+0 0  9997
2 48792  87.5551 254.3336 0008992  31.7405 163.6173 14.25844010  3512
ONEWEB-0226             
1 48793U 21045AC  21216.83334491 -.01466289  00000-0 -68707+0 0  9995
2 48793  87.5790 254.1713 0011875  48.6724 332.0977 14.23705146 11483
ONEWEB-0224             
1 48794U 21045AD  21216.91667824  .00038211  00000-0  18703-1 0  9994
2 48794  87.5260 254.1479 0009123  38.4719 341.2704 14.17612562 11458
ONEWEB-0233             
1 48795U 21045AE  21216.91667824 -.01362973  00000-0 -66472+0 0  9997
2 48795  87.5289 254.1288 0007852  51.7791 324.4356 14.21945128 11462
ONEWEB-0190             
1 48796U 21045AF  21216.58334491 -.01403586  00000-0 -60021+0 0  9992
2 48796  87.5730 254.2353 0011977  49.5436 346.3132 14.28328456  3532
ONEWEB-0236             
1 48797U 21045AG  21216.83334491 -.01460595  00000-0 -77274+0 0  9992
2 48797  87.5373 254.1564 0008740  52.5729  35.3515 14.17258668 11468
ONEWEB-0248             
1 48798U 21045AH  21216.83334491 -.01478490  00000-0 -53714+0 0  9999
2 48798  87.6484 254.1872 0011026  43.0716 155.3128 14.36845350 11551
ONEWEB-0225             
1 48799U 21045AJ  21216.58334491 -.01429440  00000-0 -47374+0 0  9998
2 48799  87.6553 254.2353 0009147  51.1839  84.1054 14.41333509  3531
ONEWEB-0215             
1 48800U 21045AK  21216.83334491 -.01348997  00000-0 -62805+0 0  9992
2 48800  87.5523 254.1558 0009989  49.7652  56.7799 14.24345089 11476
ONEWEB-0216             
1 48801U 21045AL  21216.83334491 -.01485795  00000-0 -76378+0 0  9991
2 48801  87.5293 254.2467 0009205  53.8541 270.3557 14.18857080 11462
ONEWEB-0239             
1 48802U 21045AM  21216.83334491 -.01453267  00000-0 -66753+0 0  9997
2 48802  87.5940 254.3551 0013323  43.5658  78.8519 14.24710648 11507
ONEWEB-0249             
1 48967U 21060A   21216.58334491 -.01477124  00000-0 -20034+0 0  9998
2 48967  87.4929 225.7164 0008143 139.1244 143.2411 14.82348488  3618
ONEWEB-0250             
1 48968U 21060B   21216.58334491 -.01476498  00000-0 -21120+0 0  9999
2 48968  87.4771 225.7119 0009291 124.1260 348.5957 14.80119164  3598
ONEWEB-0251             
1 48969U 21060C   21216.83334491 -.02165785  00000-0 -76186-1 0  9997
2 48969  87.4252 225.2625 0011693 146.4790 296.3110 15.32731505  6540
ONEWEB-0252             
1 48970U 21060D   21216.83334491 -.01370937  00000-0 -18083+0 0  9995
2 48970  87.4946 225.6024 0012114 141.3112 171.1957 14.83214361  6517
ONEWEB-0253             
1 48971U 21060E   21216.83334491 -.01379204  00000-0 -19366+0 0  9997
2 48971  87.4629 225.6269 0009398 125.2720 345.8249 14.80669290  6485
ONEWEB-0254             
1 48972U 21060F   21216.58334491 -.01450174  00000-0 -21624+0 0  9996
2 48972  87.4649 225.7218 0012496 144.6407 112.6389 14.78273169  3613
ONEWEB-0255             
1 48973U 21060G   21216.58334491 -.01421801  00000-0 -17109+0 0  9995
2 48973  87.4943 225.6897 0007134 140.1008 186.0057 14.87140296  3615
ONEWEB-0256             
1 48974U 21060H   21216.83334491 -.01329003  00000-0 -16751+0 0  9997
2 48974  87.4896 225.6281 0012918 139.2449 228.9378 14.85498446  6508
ONEWEB-0257             
1 48975U 21060J   21216.83334491 -.01412389  00000-0 -20335+0 0  9991
2 48975  87.4845 225.6576 0011376 125.2610 213.4948 14.79674308  6500
ONEWEB-0258             
1 48976U 21060K   21216.83334491 -.01410683  00000-0 -21087+0 0  9992
2 48976  87.4614 225.6498 0009384 130.2993 317.8469 14.78115112  6480
ONEWEB-0259             
1 48977U 21060L   21216.83334491 -.01377654  00000-0 -17966+0 0  9994
2 48977  87.4982 225.6007 0013044 141.1624 219.8892 14.83686155  6516
ONEWEB-0260             
1 48978U 21060M   21216.58334491 -.01403987  00000-0 -19024+0 0  9993
2 48978  87.4694 225.7009 0009041 127.9954  92.9416 14.82212157  3593
ONEWEB-0261             
1 48979U 21060N   21216.83334491 -.01348485  00000-0 -17494+0 0  9992
2 48979  87.4976 225.5863 0011903 140.0932 226.4706 14.84383285  6519
ONEWEB-0262             
1 48980U 21060P   21216.58334491 -.01464457  00000-0 -19179+0 0  9996
2 48980  87.5006 225.7129 0009946 139.3364 220.0751 14.83745594  3608
ONEWEB-0263             
1 48981U 21060Q   21216.58334491 -.01485713  00000-0 -21522+0 0  9990
2 48981  87.4752 225.7242 0010357 123.9099 314.8711 14.79599049  3597
ONEWEB-0264             
1 48982U 21060R   21216.83334491 -.01413274  00000-0 -22186+0 0  9999
2 48982  87.4516 225.6485 0010317 147.0879 260.9654 14.76034337  6482
ONEWEB-0265             
1 48983U 21060S   21216.83334491  .00042370  00000-0  10299-2 0  9997
2 48983  87.3966 225.2062 0008760 133.8784 291.2973 15.40776390  6569
ONEWEB-0266             
1 48984U 21060T   21216.58334491 -.01441927  00000-0 -20832+0 0  9995
2 48984  87.4747 225.7098 0012301 144.2271 205.8302 14.79585820  3601
